satname,norad_id,inclination_deg,eccentricity,mean_motion_rev_per_day,perigee_km,apogee_km,l1,l2
STARLINK-1443,45660,53.054,0.0001291,15.06395297,546.3319076337375,548.120036353107,1 45660U 20035D   25365.41923681  .00001479  00000+0  11815-3 0  9995,2 45660  53.0540  13.0993 0001291  98.7064 261.4072 15.06395297308440
STARLINK-1446,45663,53.0268,0.000612,15.39693088,442.8391601752428,451.19314763562306,1 45663U 20035G   25365.20658206  .00073400  00000+0  18219-2 0  9990,2 45663  53.0268 323.8916 0006120  58.2577 301.9021 15.39693088309117
STARLINK-1448,45665,53.0578,0.0001596,15.06409425,546.0773908017118,548.2879528409576,1 45665U 20035J   25365.42291518  .00000177  00000+0  30770-4 0  9994,2 45665  53.0578  13.0774 0001596  93.1197 266.9975 15.06409425308437
STARLINK-1451,45668,53.0564,0.0001398,15.06415717,546.195231021512,548.131545010001,1 45668U 20035M   25365.29394148  .00005120  00000+0  36222-3 0  9995,2 45668  53.0564  13.9778 0001398  90.8904 269.2246 15.06415717308425
STARLINK-1452,45669,53.0379,0.0002424,15.33902193,462.52464923143634,465.8418060778031,1 45669U 20035N   25365.17982765  .00116092  00000+0  34478-2 0  9992,2 45669  53.0379 345.3008 0002424 147.3315 212.7836 15.33902193308813
STARLINK-1453,45670,53.055,0.0004316,15.38209112,448.4574957606146,454.3527565239001,1 45670U 20035P   25365.66668981  .00112407  00000+0  29092-2 0  9991,2 45670  53.0550 337.3774 0004316  80.4577 295.9803 15.38209112  5712
STARLINK-1454,45671,53.0546,0.0001671,15.06415016,546.0083183894285,548.3227544971087,1 45671U 20035Q   25365.44872051  .00006333  00000+0  44349-3 0  9996,2 45671  53.0546  12.9667 0001671  92.6720 267.4460 15.06415016308436
STARLINK-1456,45673,53.0563,0.0002715,15.36329478,455.11869502497575,458.8301605302586,1 45673U 20035S   25365.42129097  .00045092  00000+0  12578-2 0  9994,2 45673  53.0563  10.5372 0002715  78.0577 282.0729 15.36329478308487
STARLINK-1457,45674,53.0516,0.0011507,15.52268194,402.29406561475207,417.9165264348221,1 45674U 20035T   25365.66668981  .00107146  00000+0  17136-2 0  9995,2 45674  53.0516 357.1521 0011507  37.8874 308.5920 15.52268194  5929
STARLINK-1458,45675,53.0556,0.0001406,15.06406165,546.2189618149987,548.1663645162807,1 45675U 20035U   25365.32708481  .00005399  00000+0  38099-3 0  9998,2 45675  53.0556  13.5084 0001406  94.2290 265.8860 15.06406165308393
STARLINK-1460,45676,53.0555,0.0001449,15.06408402,546.182327863321,548.1892864128304,1 45676U 20035V   25365.29759736  .00009395  00000+0  64865-3 0  9994,2 45676  53.0555  13.6431 0001449  92.3004 267.8151 15.06408402308389
STARLINK-1392,45677,53.0546,0.0001504,15.06385275,546.2151090993902,548.2982675208341,1 45677U 20035W   25365.44135611  .00001636  00000+0  12875-3 0  9996,2 45677  53.0546  12.9981 0001504  86.7915 273.3247 15.06385275308449
STARLINK-1394,45679,53.055,0.0001932,15.36947126,453.8229125543294,456.4632919858468,1 45679U 20035Y   25365.40363962  .00097462  00000+0  26346-2 0  9995,2 45679  53.0550   0.6916 0001932  82.0662 278.0560 15.36947126308612
STARLINK-1402,45685,53.0542,0.0007874,15.33865863,458.90354059681067,469.6789966342276,1 45685U 20035AE  25365.66668981  .00084625  00000+0  25279-2 0  9990,2 45685  53.0542 344.5934 0007874  31.7975 265.8527 15.33865863  5816
STARLINK-1404,45686,53.0539,0.0001465,15.06397184,546.2056237580155,548.2347534142727,1 45686U 20035AF  25365.39805300  .00006935  00000+0  48407-3 0  9996,2 45686  53.0539   3.1955 0001465  77.1129 283.0024 15.06397184308589
STARLINK-1413,45689,53.0544,0.0001295,15.06389492,546.3469268231693,548.1406004409491,1 45689U 20035AJ  25365.41647724  .00006457  00000+0  45211-3 0  9995,2 45689  53.0544   3.1081 0001295  77.3816 282.7318 15.06389492308499
STARLINK-1417,45693,53.0541,0.0004849,15.08642713,536.9917094713101,543.7012547522618,1 45693U 20035AN  25365.31579363  .00039002  00000+0  24677-2 0  9996,2 45693  53.0541   3.2394 0004849  38.4091 321.7243 15.08642713308569
STARLINK-1420,45695,53.0552,0.0001277,15.06406166,546.3082955032105,548.0770246984002,1 45695U 20035AQ  25365.34733353  .00008901  00000+0  61561-3 0  9990,2 45695  53.0552 343.4064 0001277 104.6539 255.4592 15.06406166308851
STARLINK-1422,45696,53.0548,0.0001125,15.06366883,546.533945501471,548.0921717646634,1 45696U 20035AR  25365.42385940  .00001219  00000+0  10076-3 0  9995,2 45696  53.0548   3.0777 0001125  80.2405 279.8711 15.06366883308573
STARLINK-1351,45697,53.0557,0.0001577,15.10028701,535.0220121464317,537.2027664038096,1 45697U 20035AS  25365.18119590  .00035948  00000+0  21926-2 0  9996,2 45697  53.0557 343.9618 0001577  96.8263 263.2907 15.10028701308832
STARLINK-1398,45699,53.0469,0.0007064,15.64601769,369.6143278441341,379.1542899493443,1 45699U 20035AU  25365.66668981  .00229411  00000+0  22683-2 0  9995,2 45699  53.0469 279.5632 0007064  92.1172 183.9864 15.64601769  5958
STARLINK-1400,45700,53.0566,0.0001439,15.06414172,546.1715717327234,548.1646745471635,1 45700U 20035AV  25365.37407364  .00000462  00000+0  49887-4 0  9992,2 45700  53.0566 343.2978 0001439 102.6958 257.4192 15.06414172308852
STARLINK-1403,45701,53.0552,0.0001412,15.06394627,546.2501639167758,548.2058869999655,1 45701U 20035AW  25365.27087708 -.00002254  00000+0 -13248-3 0  9992,2 45701  53.0552 343.7646 0001412  73.7191 286.3953 15.06394627308839
STARLINK-1407,45703,53.0416,0.0005138,15.47570609,420.3404502368303,427.33015697601695,1 45703U 20035AY  25365.18644264  .00101183  00000+0  19158-2 0  9994,2 45703  53.0416 286.3422 0005138 232.1705 127.8838 15.47570609309647
STARLINK-1411,45706,53.0501,0.0002375,15.5076923,412.86566085400773,416.0921534098952,1 45706U 20035BB  25365.28865610  .00077531  00000+0  13183-2 0  9999,2 45706  53.0501 312.6606 0002375 113.3183 246.8075 15.50769230309270
STARLINK-1423,45710,53.0557,0.0001427,15.06412367,546.1854132932713,548.1618969542451,1 45710U 20035BF  25365.23032325 -.00001295  00000+0 -68008-4 0  9992,2 45710  53.0557 343.9451 0001427  86.9524 273.1628 15.06412367308837
STARLINK-1433,45711,53.0563,0.000174,15.06401982,546.0004738082862,548.4104929925088,1 45711U 20035BG  25365.21190432  .00013557  00000+0  92719-3 0  9992,2 45711  53.0563 344.0284 0001740  62.3738 297.7427 15.06401982308823
STARLINK-1434,45712,53.0487,0.0002183,15.19587599,505.583008710526,508.5890970954242,1 45712U 20035BH  25365.32133218  .00015793  00000+0  74617-3 0  9995,2 45712  53.0487 334.9265 0002183   8.6991 351.4041 15.19587599308971
STARLINK-1465,45731,53.0536,0.0001417,15.06404361,546.2168721368953,548.1795121303458,1 45731U 20038B   25365.64315276  .00001769  00000+0  13762-3 0  9992,2 45731  53.0536 182.0868 0001417  95.4947 264.6204 15.06404361305932
STARLINK-1471,45735,53.0495,0.0001523,15.43991016,433.30684540043694,435.38192723070915,1 45735U 20038F   25365.52473793  .00033259  00000+0  72448-3 0  9997,2 45735  53.0495 107.3328 0001523  66.6402 293.4763 15.43991016306980
STARLINK-1474,45738,53.0311,0.0004396,15.80842753,325.1081360086009,331.00422105116377,1 45738U 20038J   25365.66668981  .00189995  00000+0  94591-3 0  9992,2 45738  53.0311  50.1761 0004396  50.1677 121.2648 15.80842753  6003
STARLINK-1480,45741,53.0541,9.7e-05,15.36475084,455.8796317303195,457.2055595718766,1 45741U 20038M   25365.66668981  .00012382  00000+0  35301-3 0  9995,2 45741  53.0541 179.9088 0000970  84.2484 129.2686 15.36475084  5809
STARLINK-1500,45744,53.0376,0.000285,15.3089489,471.1884237510849,475.0936522327411,1 45744U 20038Q   25365.41033010  .00049117  00000+0  16240-2 0  9996,2 45744  53.0376 152.0762 0002850  51.4043 308.7211 15.30894890306340
STARLINK-1504,45746,53.0258,0.0001492,15.47588939,422.76674782794635,424.79644033642035,1 45746U 20038S   25365.56266170  .00054987  00000+0  10508-2 0  9991,2 45746  53.0258 109.6293 0001492  13.2892 346.8154 15.47588939306944
STARLINK-1506,45747,53.0748,0.0003402,15.23744442,492.22013059384426,496.89631242255746,1 45747U 20038T   25365.56714196  .00024715  00000+0  10252-2 0  9990,2 45747  53.0748 156.8942 0003402  69.1694 290.9667 15.23744442306290
STARLINK-1464,45751,53.0554,0.0001251,15.06398943,546.3484359830691,548.0811590028025,1 45751U 20038X   25365.42752811  .00000214  00000+0  33276-4 0  9997,2 45751  53.0554 163.0571 0001251  88.1794 271.9339 15.06398943306196
STARLINK-1477,45754,53.0504,0.0005783,15.10024424,532.1269272643476,540.123963208508,1 45754U 20038AA  25365.62679168  .00050477  00000+0  30648-2 0  9999,2 45754  53.0504 161.3085 0005783 149.8090 210.3235 15.10024424306235
STARLINK-1478,45755,53.0539,0.0001863,15.16511483,515.1091876032942,517.6780897192593,1 45755U 20038AB  25365.66668981  .00066336  00000+0  33483-2 0  9996,2 45755  53.0539 161.7794 0001863  83.6407  58.6438 15.16511483  5817
STARLINK-1484,45756,53.0111,0.0003943,15.73917559,345.0611554729294,350.3651609076769,1 45756U 20038AC  25365.66668981  .00080809  00000+0  55698-3 0  9991,2 45756  53.0111  40.7692 0003943  38.1441 295.2734 15.73917559  5827
STARLINK-1493,45759,53.0562,0.0001425,15.06405211,546.208727126188,548.182446913489,1 45759U 20038AF  25365.64867887  .00000439  00000+0  48344-4 0  9990,2 45759  53.0562 162.0642 0001425  88.3368 271.7784 15.06405211306215
STARLINK-1494,45760,53.0518,0.0002446,15.57085874,394.43904345286137,397.7529982466622,1 45760U 20038AG  25365.62507699  .00062813  00000+0  85180-3 0  9994,2 45760  53.0518 126.5265 0002446 204.2457 155.8439 15.57085874306726
STARLINK-1502,45764,53.0542,0.0001504,15.06398979,546.1731142642448,548.2562600517431,1 45764U 20038AL  25365.61550779  .00000265  00000+0  36661-4 0  9998,2 45764  53.0542 162.2148 0001504  91.2769 268.8392 15.06398979306223
STARLINK-1470,45772,53.0489,0.0004774,15.2229896,495.62502601160486,502.19122869920375,1 45772U 20038AU  25365.58393578  .00033108  00000+0  14266-2 0  9992,2 45772  53.0489 129.0118 0004774 129.1817 230.9604 15.22298960306680
